     2              NAVIGATION DATA                         RINEX VERSION / TYPE
CCRINEXN V1.6.0 UX  CDDIS               22-MAY-16 15:33     PGM / RUN BY / DATE 
IGS BROADCAST EPHEMERIS FILE                                COMMENT             
    0.1024D-07  0.2235D-07 -0.5960D-07 -0.1192D-06          ION ALPHA           
    0.9626D+05  0.1311D+06 -0.6554D+05 -0.5898D+06          ION BETA            
    0.186264514923D-08 0.799360577730D-14    61440     1898 DELTA-UTC: A0,A1,T,W
    17                                                      LEAP SECONDS        
                                                            END OF HEADER       
32 16  5 21  0  0  0.0-0.933092087507D-05-0.625277607469D-11 0.000000000000D+00
    0.450000000000D+02 0.694375000000D+02 0.405695470273D-08-0.205434750005D+01
    0.364519655704D-05 0.361602520570D-03 0.110622495413D-04 0.515361429977D+04
    0.518400000000D+06-0.782310962677D-07 0.461181077014D-01-0.104308128357D-06
    0.960181607304D+00 0.169500000000D+03-0.233775932906D+01-0.765960476757D-08
   -0.152863510236D-09 0.000000000000D+00 0.189700000000D+04 0.000000000000D+00
    0.200000000000D+01 0.000000000000D+00 0.465661287308D-09 0.450000000000D+02
    0.518340000000D+06 0.400000000000D+01 0.000000000000D+00 0.000000000000D+00
 8 16  5 21  1 59 44.0-0.358922407031D-04-0.136424205266D-11 0.000000000000D+00
    0.000000000000D+00-0.514687500000D+02 0.427482092059D-08-0.430148422551D+00
   -0.292994081974D-05 0.176250131335D-02 0.116825103760D-04 0.515369750595D+04
    0.525584000000D+06-0.298023223877D-07-0.309640827676D+01-0.260770320892D-07
    0.963570596012D+00 0.155531250000D+03-0.111522299953D+01-0.780711091179D-08
    0.292869342041D-09 0.000000000000D+00 0.189700000000D+04 0.000000000000D+00
    0.200000000000D+01 0.000000000000D+00 0.465661287308D-08 0.000000000000D+00
    0.519630000000D+06 0.400000000000D+01 0.000000000000D+00 0.000000000000D+00
16 16  5 21  1 59 44.0-0.162213109434D-04 0.261479726760D-11 0.000000000000D+00
    0.400000000000D+01-0.975312500000D+02 0.393587823084D-08-0.464637067370D+00
   -0.486150383949D-05 0.876049452927D-02 0.493600964546D-05 0.515375874901D+04
    0.525584000000D+06 0.931322574615D-07 0.221792982787D+01 0.540167093277D-07
    0.990709367776D+00 0.295843750000D+03 0.383674199628D+00-0.801247660896D-08
   -0.178578867098D-09 0.000000000000D+00 0.189700000000D+04 0.000000000000D+00
    0.200000000000D+01 0.000000000000D+00-0.107102096081D-07 0.400000000000D+01
    0.518400000000D+06 0.400000000000D+01 0.000000000000D+00 0.000000000000D+00
23 16  5 21  1 59 44.0-0.174667220563D-03-0.170530256582D-11 0.000000000000D+00
    0.000000000000D+00 0.769687500000D+02 0.432589447658D-08-0.264793476449D+01
    0.376813113689D-05 0.109075894579D-01 0.118035823107D-04 0.515368673325D+04
    0.525584000000D+06-0.372529029846D-08 0.500057378883D-01-0.137835741043D-06
    0.946518679514D+00 0.142812500000D+03-0.257710435556D+01-0.774532262378D-08
   -0.131076888450D-09 0.000000000000D+00 0.189700000000D+04 0.000000000000D+00
    0.200000000000D+01 0.000000000000D+00-0.200234353542D-07 0.000000000000D+00
    0.518730000000D+06 0.400000000000D+01 0.000000000000D+00 0.000000000000D+00
26 16  5 21  1 59 44.0-0.370712485164D-03-0.121644916362D-10 0.000000000000D+00
    0.110000000000D+02-0.952812500000D+02 0.457233331318D-08 0.222395362128D+00
   -0.485964119434D-05 0.102503900416D-02 0.379048287869D-05 0.515376006508D+04
    0.525584000000D+06 0.931322574616D-08 0.213942803307D+01-0.186264514923D-07
    0.960358616003D+00 0.306218750000D+03 0.187252778298D+00-0.828070206734D-08
   -0.174292974288D-09 0.000000000000D+00 0.189700000000D+04 0.000000000000D+00
    0.200000000000D+01 0.000000000000D+00 0.698491930962D-08 0.110000000000D+02
    0.518400000000D+06 0.400000000000D+01 0.000000000000D+00 0.000000000000D+00
 1 16  5 21  2  0  0.0 0.210329890251D-04 0.125055521494D-11 0.000000000000D+00
    0.250000000000D+02 0.329062500000D+02 0.485591655413D-08 0.285152411137D+01
    0.166147947311D-05 0.544613134116D-02 0.615976750851D-05 0.515363837624D+04
    0.525600000000D+06-0.689178705216D-07-0.203639646239D+01-0.596046447754D-07
    0.964094212428D+00 0.262875000000D+03 0.458361817364D+00-0.801819113270D-08
    0.413231498465D-09 0.000000000000D+00 0.189700000000D+04 0.000000000000D+00
    0.200000000000D+01 0.000000000000D+00 0.512227416039D-08 0.250000000000D+02
    0.518400000000D+06 0.400000000000D+01 0.000000000000D+00 0.000000000000D+00
 2 16  5 21  2  0  0.0 0.590621959418D-03-0.227373675443D-11 0.000000000000D+00
    0.780000000000D+02 0.329375000000D+02 0.527521973408D-08-0.307734186062D+01
    0.169500708580D-05 0.156696046470D-01 0.606849789619D-05 0.515377331162D+04
    0.525600000000D+06 0.139698386192D-06-0.208179052513D+01-0.344589352608D-06
    0.942896507516D+00 0.247937500000D+03-0.211827381925D+01-0.813212444991D-08
    0.405016870578D-09 0.100000000000D+01 0.189700000000D+04 0.000000000000D+00
    0.200000000000D+01 0.000000000000D+00-0.200234353542D-07 0.780000000000D+02
    0.518418000000D+06 0.400000000000D+01 0.000000000000D+00 0.000000000000D+00
 3 16  5 21  2  0  0.0-0.597024336457D-04-0.375166564481D-11 0.000000000000D+00
    0.370000000000D+02-0.310000000000D+02 0.480627162908D-08-0.214793098547D+01
   -0.163540244103D-05 0.235778046772D-03 0.686757266522D-05 0.515369659424D+04
    0.525600000000D+06-0.745058059692D-08-0.994566238647D+00 0.707805156708D-07
    0.958988217251D+00 0.245312500000D+03-0.195509967336D+01-0.810105172704D-08
   -0.575381109790D-09 0.000000000000D+00 0.189700000000D+04 0.000000000000D+00
    0.200000000000D+01 0.000000000000D+00 0.186264514923D-08 0.370000000000D+02
    0.524310000000D+06 0.400000000000D+01 0.000000000000D+00 0.000000000000D+00
 4 16  5 21  2  0  0.0-0.256571918726D-03-0.568434188608D-12 0.000000000000D+00
    0.430000000000D+02-0.904687500000D+02 0.538879589355D-08-0.254126859872D+00
   -0.463612377644D-05 0.850389210973D-02 0.440515577793D-05 0.515364400864D+04
    0.525600000000D+06-0.931322574616D-08 0.216990310508D+01 0.875443220139D-07
    0.983172623029D+00 0.308531250000D+03 0.887205378431D+00-0.815355391396D-08
   -0.182150444440D-09 0.000000000000D+00 0.189700000000D+04 0.000000000000D+00
    0.200000000000D+01 0.630000000000D+02-0.195577740669D-07 0.430000000000D+02
    0.518400000000D+06 0.400000000000D+01 0.000000000000D+00 0.000000000000D+00
 5 16  5 21  2  0  0.0-0.119227916002D-03 0.306954461848D-11 0.000000000000D+00
    0.500000000000D+02-0.368125000000D+02 0.514700010750D-08-0.557787049201D+00
   -0.202655792236D-05 0.460848794319D-02 0.652298331261D-05 0.515378826141D+04
    0.525600000000D+06 0.838190317154D-07-0.100637655331D+01 0.540167093277D-07
    0.946054305428D+00 0.245718750000D+03 0.453307732372D+00-0.834213319762D-08
   -0.656098757718D-09 0.100000000000D+01 0.189700000000D+04 0.000000000000D+00
    0.200000000000D+01 0.000000000000D+00-0.107102096081D-07 0.500000000000D+02
    0.523146000000D+06 0.400000000000D+01 0.000000000000D+00 0.000000000000D+00
 6 16  5 21  2  0  0.0 0.193169340491D-03 0.545696821064D-11 0.000000000000D+00
    0.510000000000D+02 0.294687500000D+02 0.493413409792D-08-0.310702962524D+01
    0.176765024662D-05 0.436542206444D-03 0.625289976597D-05 0.515368711853D+04
    0.525600000000D+06 0.102445483208D-06-0.204483068398D+01 0.353902578354D-07
    0.963930778146D+00 0.260406250000D+03-0.142671907987D+01-0.817712632442D-08
    0.416088760338D-09 0.100000000000D+01 0.189700000000D+04 0.000000000000D+00
    0.200000000000D+01 0.000000000000D+00 0.419095158577D-08 0.510000000000D+02
    0.518418000000D+06 0.400000000000D+01 0.000000000000D+00 0.000000000000D+00
 7 16  5 21  2  0  0.0 0.453399494290D-03-0.227373675443D-11 0.000000000000D+00
    0.550000000000D+02 0.898437500000D+02 0.452625996547D-08 0.212232661581D+01
    0.460073351860D-05 0.942173355725D-02 0.277347862721D-05 0.515365056419D+04
    0.525600000000D+06-0.199303030968D-06 0.112258239764D+01-0.260770320892D-07
    0.966395047559D+00 0.329281250000D+03-0.267790822823D+01-0.832606109958D-08
    0.291797868838D-09 0.000000000000D+00 0.189700000000D+04 0.000000000000D+00
    0.200000000000D+01 0.000000000000D+00-0.111758708954D-07 0.550000000000D+02
    0.521970000000D+06 0.400000000000D+01 0.000000000000D+00 0.000000000000D+00
 8 16  5 21  2  0  0.0-0.358922407031D-04-0.136424205266D-11 0.000000000000D+00
    0.134000000000D+03-0.514687500000D+02 0.427446376286D-08-0.427817688301D+00
   -0.292994081974D-05 0.176251039375D-02 0.116825103760D-04 0.515369750214D+04
    0.525600000000D+06-0.298023223877D-07-0.309640838502D+01-0.260770320892D-07
    0.963570591623D+00 0.155531250000D+03-0.111522003712D+01-0.780675375406D-08
    0.292869342041D-09 0.000000000000D+00 0.189700000000D+04 0.000000000000D+00
    0.280000000000D+01 0.000000000000D+00 0.465661287308D-08 0.134000000000D+03
    0.518400000000D+06 0.400000000000D+01 0.000000000000D+00 0.000000000000D+00
 9 16  5 21  2  0  0.0 0.133023131639D-03 0.727595761418D-11 0.000000000000D+00
    0.250000000000D+02 0.779687500000D+02 0.421874715632D-08-0.163090387536D+01
    0.395253300667D-05 0.574129051529D-03 0.116005539894D-04 0.515358917999D+04
    0.525600000000D+06 0.130385160446D-07 0.447000543938D-01 0.391155481338D-07
    0.955580471008D+00 0.151937500000D+03 0.223474563378D+01-0.782496879850D-08
   -0.208580116771D-09 0.000000000000D+00 0.189700000000D+04 0.000000000000D+00
    0.200000000000D+01 0.000000000000D+00 0.139698386192D-08 0.250000000000D+02
    0.518400000000D+06 0.400000000000D+01 0.000000000000D+00 0.000000000000D+00
